CCSDS_OMM_VERS,COMMENT,CREATION_DATE,ORIGINATOR,OBJECT_NAME,OBJECT_ID,CENTER_NAME,REF_FRAME,TIME_SYSTEM,MEAN_ELEMENT_THEORY,EPOCH,MEAN_MOTION,ECCENTRICITY,INCLINATION,RA_OF_ASC_NODE,ARG_OF_PERICENTER,MEAN_ANOMALY,EPHEMERIS_TYPE,CLASSIFICATION_TYPE,NORAD_CAT_ID,ELEMENT_SET_NO,REV_AT_EPOCH,BSTAR,MEAN_MOTION_DOT,MEAN_MOTION_DDOT,SEMIMAJOR_AXIS,PERIOD,APOAPSIS,PERIAPSIS,OBJECT_TYPE,RCS_SIZE,COUNTRY_CODE,LAUNCH_DATE,SITE,DECAY_DATE,FILE,GP_ID,TLE_LINE0,TLE_LINE1,TLE_LINE2
2,GENERATED VIA SPACE-TRACK.ORG API,2023-01-26T18:36:19,18 SPCS,OBJECT K,2023-001K,EARTH,TEME,UTC,SGP4,2023-01-26T14:55:38.779968,15.12702014,0.0012026,97.4996,88.342,139.8965,220.3156,0,U,55018,999,363,0.00077518,0.00013545,0,6906.101,95.194,536.271,519.661,UNKNOWN,MEDIUM,TBD,2023-01-03,AFETR,,3762000,223761637,0 OBJECT K,1 55018U 23001K   23026.62197662  .00013545  00000-0  77518-3 0  9996,2 55018  97.4996  88.3420 0012026 139.8965 220.3156 15.12702014  3636
2,GENERATED VIA SPACE-TRACK.ORG API,2023-01-27T19:19:47,18 SPCS,OBJECT K,2023-001K,EARTH,TEME,UTC,SGP4,2023-01-27T13:09:11.964960,15.12720471,0.0012087,97.4995,89.2523,137.0645,223.1532,0,U,55018,999,377,0.00061214,0.00010684,0,6906.045,95.193,536.257,519.562,UNKNOWN,MEDIUM,TBD,2023-01-03,AFETR,,3762956,223808968,0 OBJECT K,1 55018U 23001K   23027.54805515  .00010684  00000-0  61214-3 0  9998,2 55018  97.4995  89.2523 0012087 137.0645 223.1532 15.12720471  3772
2,GENERATED VIA SPACE-TRACK.ORG API,2023-01-27T22:56:13,18 SPCS,OBJECT K,2023-001K,EARTH,TEME,UTC,SGP4,2023-01-27T17:54:57.503232,15.12724916,0.0012076,97.4995,89.4474,136.4272,223.7914,0,U,55018,999,380,0.00060225,0.00010511,0,6906.031,95.192,536.236,519.556,UNKNOWN,MEDIUM,TBD,2023-01-03,AFETR,,3763137,223813319,0 OBJECT K,1 55018U 23001K   23027.74649888  .00010511  00000-0  60225-3 0  9999,2 55018  97.4995  89.4474 0012076 136.4272 223.7914 15.12724916  3808
2,GENERATED VIA SPACE-TRACK.ORG API,2023-01-28T02:20:17,18 SPCS,OBJECT K,2023-001K,EARTH,TEME,UTC,SGP4,2023-01-27T21:05:27.841344,15.12727325,0.0012072,97.4995,89.5775,136.0274,224.192,0,U,55018,999,382,0.00059164,0.00010325,0,6906.024,95.192,536.226,519.552,UNKNOWN,MEDIUM,TBD,2023-01-03,AFETR,,3763218,223839901,0 OBJECT K,1 55018U 23001K   23027.87879446  .00010325  00000-0  59164-3 0  9991,2 55018  97.4995  89.5775 0012072 136.0274 224.1920 15.12727325  3828
2,GENERATED VIA SPACE-TRACK.ORG API,2023-01-28T18:21:26,18 SPCS,OBJECT K,2023-001K,EARTH,TEME,UTC,SGP4,2023-01-28T12:57:59.196672,15.1274017,0.0012075,97.4994,90.2278,134.2127,226.0098,0,U,55018,999,392,0.00053696,9.367e-05,0,6905.985,95.191,536.189,519.511,UNKNOWN,MEDIUM,TBD,2023-01-03,AFETR,,3763924,223883095,0 OBJECT K,1 55018U 23001K   23028.54026848  .00009367  00000-0  53696-3 0  9994,2 55018  97.4994  90.2278 0012075 134.2127 226.0098 15.12740170  3925
2,GENERATED VIA SPACE-TRACK.ORG API,2023-01-29T02:24:43,18 SPCS,OBJECT K,2023-001K,EARTH,TEME,UTC,SGP4,2023-01-28T19:18:59.621472,15.12744523,0.0012071,97.4993,90.4879,133.4609,226.7628,0,U,55018,999,396,0.00050073,8.731e-05,0,6905.972,95.191,536.173,519.5,UNKNOWN,MEDIUM,TBD,2023-01-03,AFETR,,3764201,223914647,0 OBJECT K,1 55018U 23001K   23028.80485673  .00008731  00000-0  50073-3 0  9998,2 55018  97.4993  90.4879 0012071 133.4609 226.7628 15.12744523  3961
2,GENERATED VIA SPACE-TRACK.ORG API,2023-01-28T23:36:13,18 SPCS,OBJECT K,2023-001K,EARTH,TEME,UTC,SGP4,2023-01-28T19:18:59.621472,15.12744523,0.0012071,97.4993,90.4879,133.4609,226.7628,0,U,55018,999,396,0.00050073,8.731e-05,0,6905.972,95.191,536.173,519.5,UNKNOWN,MEDIUM,TBD,2023-01-03,AFETR,,3764103,223887826,0 OBJECT K,1 55018U 23001K   23028.80485673  .00008731  00000-0  50073-3 0  9998,2 55018  97.4993  90.4879 0012071 133.4609 226.7628 15.12744523  3961
2,GENERATED VIA SPACE-TRACK.ORG API,2023-01-30T02:21:05,18 SPCS,OBJECT K,2023-001K,EARTH,TEME,UTC,SGP4,2023-01-29T20:43:00.609600,15.12762621,0.0012056,97.4994,91.5282,130.2739,229.9548,0,U,55018,999,412,0.0004747,8.278e-05,0,6905.916,95.19,536.107,519.456,UNKNOWN,MEDIUM,TBD,2023-01-03,AFETR,,3765015,223959463,0 OBJECT K,1 55018U 23001K   23029.86320150  .00008278  00000-0  47470-3 0  9996,2 55018  97.4994  91.5282 0012056 130.2739 229.9548 15.12762621  4128
2,GENERATED VIA SPACE-TRACK.ORG API,2023-01-30T10:06:12,18 SPCS,OBJECT K,2023-001K,EARTH,TEME,UTC,SGP4,2023-01-30T06:14:30.724512,15.12768574,0.0012066,97.4993,91.9183,129.0702,231.1604,0,U,55018,999,418,0.00044412,7.741e-05,0,6905.898,95.19,536.096,519.431,UNKNOWN,MEDIUM,TBD,2023-01-03,AFETR,,3765323,223967049,0 OBJECT K,1 55018U 23001K   23030.26007783  .00007741  00000-0  44412-3 0  9993,2 55018  97.4993  91.9183 0012066 129.0702 231.1604 15.12768574  4185
2,GENERATED VIA SPACE-TRACK.ORG API,2023-01-30T17:24:27,18 SPCS,OBJECT K,2023-001K,EARTH,TEME,UTC,SGP4,2023-01-30T14:10:45.700608,15.12774121,0.0012088,97.4994,92.2435,128.0704,232.1619,0,U,55018,999,423,0.0004491,7.83e-05,0,6905.881,95.189,536.094,519.399,UNKNOWN,MEDIUM,TBD,2023-01-03,AFETR,,3765576,223998338,0 OBJECT K,1 55018U 23001K   23030.59080672  .00007830  00000-0  44910-3 0  9999,2 55018  97.4994  92.2435 0012088 128.0704 232.1619 15.12774121  4233
2,GENERATED VIA SPACE-TRACK.ORG API,2023-01-31T04:45:22,18 SPCS,OBJECT K,2023-001K,EARTH,TEME,UTC,SGP4,2023-01-30T22:07:00.577344,15.1277951,0.0012107,97.4994,92.5686,127.0178,233.2163,0,U,55018,999,428,0.0004617,8.053e-05,0,6905.865,95.189,536.091,519.369,UNKNOWN,MEDIUM,TBD,2023-01-03,AFETR,,3765849,224057526,0 OBJECT K,1 55018U 23001K   23030.92153446  .00008053  00000-0  46170-3 0  9994,2 55018  97.4994  92.5686 0012107 127.0178 233.2163 15.12779510  4288
2,GENERATED VIA SPACE-TRACK.ORG API,2023-01-31T17:42:24,18 SPCS,OBJECT K,2023-001K,EARTH,TEME,UTC,SGP4,2023-01-31T12:24:15.063264,15.12791414,0.0012133,97.4996,93.154,125.1948,235.0421,0,U,55018,999,437,0.00052162,9.111e-05,0,6905.829,95.188,536.073,519.315,UNKNOWN,MEDIUM,TBD,2023-01-03,AFETR,,3766475,224099351,0 OBJECT K,1 55018U 23001K   23031.51684101  .00009111  00000-0  52162-3 0  9991,2 55018  97.4996  93.1540 0012133 125.1948 235.0421 15.12791414  4373
2,GENERATED VIA SPACE-TRACK.ORG API,2023-01-31T16:16:15,18 SPCS,OBJECT K,2023-001K,EARTH,TEME,UTC,SGP4,2023-01-31T12:24:15.063264,15.12791414,0.0012133,97.4996,93.154,125.1948,235.0421,0,U,55018,999,437,0.00052162,9.111e-05,0,6905.829,95.188,536.073,519.315,UNKNOWN,MEDIUM,TBD,2023-01-03,AFETR,,3766407,224070776,0 OBJECT K,1 55018U 23001K   23031.51684101  .00009111  00000-0  52162-3 0  9991,2 55018  97.4996  93.1540 0012133 125.1948 235.0421 15.12791414  4373
2,GENERATED VIA SPACE-TRACK.ORG API,2023-02-01T03:54:44,18 SPCS,OBJECT K,2023-001K,EARTH,TEME,UTC,SGP4,2023-01-31T21:55:44.512032,15.12798797,0.0012138,97.4996,93.5441,123.9154,236.3233,0,U,55018,999,443,0.00054036,9.443e-05,0,6905.806,95.188,536.054,519.289,UNKNOWN,MEDIUM,TBD,2023-01-03,AFETR,,3766747,224130253,0 OBJECT K,1 55018U 23001K   23031.91370963  .00009443  00000-0  54036-3 0  9993,2 55018  97.4996  93.5441 0012138 123.9154 236.3233 15.12798797  4430
2,GENERATED VIA SPACE-TRACK.ORG API,2023-02-01T17:55:05,18 SPCS,OBJECT K,2023-001K,EARTH,TEME,UTC,SGP4,2023-02-01T12:12:58.329216,15.12810115,0.0012197,97.4996,94.1293,121.9377,238.3042,0,U,55018,999,452,0.0005206,9.098e-05,0,6905.772,95.187,536.06,519.214,UNKNOWN,MEDIUM,TBD,2023-01-03,AFETR,,3767525,224199849,0 OBJECT K,1 55018U 23001K   23032.50900844  .00009098  00000-0  52060-3 0  9997,2 55018  97.4996  94.1293 0012197 121.9377 238.3042 15.12810115  4521
2,GENERATED VIA SPACE-TRACK.ORG API,2023-02-01T22:46:15,18 SPCS,OBJECT K,2023-001K,EARTH,TEME,UTC,SGP4,2023-02-01T18:33:57.678336,15.12815257,0.0012236,97.4996,94.3893,121.0413,239.2021,0,U,55018,999,456,0.00051619,9.021e-05,0,6905.756,95.187,536.071,519.171,UNKNOWN,MEDIUM,TBD,2023-01-03,AFETR,,3767663,224204049,0 OBJECT K,1 55018U 23001K   23032.77358424  .00009021  00000-0  51619-3 0  9992,2 55018  97.4996  94.3893 0012236 121.0413 239.2021 15.12815257  4568
2,GENERATED VIA SPACE-TRACK.ORG API,2023-02-02T19:06:22,18 SPCS,OBJECT K,2023-001K,EARTH,TEME,UTC,SGP4,2023-02-02T04:05:26.502432,15.12826602,0.0012274,97.4995,94.7794,119.7983,240.447,0,U,55018,999,462,0.00061971,0.0001085,0,6905.722,95.186,536.063,519.111,UNKNOWN,MEDIUM,TBD,2023-01-03,AFETR,,3768366,224244266,0 OBJECT K,1 55018U 23001K   23033.17044563  .00010850  00000-0  61971-3 0  9997,2 55018  97.4995  94.7794 0012274 119.7983 240.4470 15.12826602  4624
2,GENERATED VIA SPACE-TRACK.ORG API,2023-02-03T01:56:13,18 SPCS,OBJECT K,2023-001K,EARTH,TEME,UTC,SGP4,2023-02-02T21:33:08.962560,15.12837189,0.0012341,97.4994,95.4946,117.4897,242.759,0,U,55018,999,473,0.00048762,8.523e-05,0,6905.689,95.185,536.077,519.032,UNKNOWN,MEDIUM,TBD,2023-01-03,AFETR,,3769048,224259500,0 OBJECT K,1 55018U 23001K   23033.89802040  .00008523  00000-0  48762-3 0  9995,2 55018  97.4994  95.4946 0012341 117.4897 242.7590 15.12837189  4736
2,GENERATED VIA SPACE-TRACK.ORG API,2023-02-03T17:50:40,18 SPCS,OBJECT K,2023-001K,EARTH,TEME,UTC,SGP4,2023-02-03T03:54:07.891776,15.12843431,0.0012373,97.4993,95.7547,116.6448,243.6051,0,U,55018,999,477,0.00052206,9.132e-05,0,6905.67,95.185,536.08,518.991,UNKNOWN,MEDIUM,TBD,2023-01-03,AFETR,,3770323,224314340,0 OBJECT K,1 55018U 23001K   23034.16259134  .00009132  00000-0  52206-3 0  9991,2 55018  97.4993  95.7547 0012373 116.6448 243.6051 15.12843431  4776
2,GENERATED VIA SPACE-TRACK.ORG API,2023-02-04T17:34:50,18 SPCS,OBJECT K,2023-001K,EARTH,TEME,UTC,SGP4,2023-02-04T03:42:48.147552,15.12864191,0.0012422,97.4989,96.7299,113.6037,246.6499,0,U,55018,999,492,0.00057236,0.00010026,0,6905.607,95.184,536.05,518.894,UNKNOWN,MEDIUM,TBD,2023-01-03,AFETR,,3771952,224405585,0 OBJECT K,1 55018U 23001K   23035.15472393  .00010026  00000-0  57236-3 0  9997,2 55018  97.4989  96.7299 0012422 113.6037 246.6499 15.12864191  4924
